{
  "norad_id": 52754,
  "name": "HAWK-5C",
  "history": [
    {
      "epoch": "2026-04-10T12:32:26.880576Z",
      "apogee_km": 422.37848780684,
      "perigee_km": 416.9049163959089,
      "latitude_deg": -4.369236939691685e-05,
      "longitude_deg": -130.86576006062776,
      "height_km": 420.70902686061885,
      "semi_major_axis_km": 6797.778702101375,
      "eccentricity": 0.0004026,
      "inclination_deg": 97.6512,
      "raan_deg": 256.0014,
      "arg_perigee_deg": 318.7621,
      "mean_anomaly_deg": 41.3324,
      "mean_motion_rev_day": 15.49002892
    },
    {
      "epoch": "2026-04-11T21:05:54.784320Z",
      "apogee_km": 422.19177901326384,
      "perigee_km": 416.82164048256345,
      "latitude_deg": -3.950260185854887e-05,
      "longitude_deg": 100.86847194887174,
      "height_km": 420.81534906685874,
      "semi_major_axis_km": 6797.643709747914,
      "eccentricity": 0.000395,
      "inclination_deg": 97.651,
      "raan_deg": 257.439,
      "arg_perigee_deg": 312.5894,
      "mean_anomaly_deg": 47.5022,
      "mean_motion_rev_day": 15.49049034
    },
    {
      "epoch": "2026-04-13T04:06:17.642592Z",
      "apogee_km": 422.00139569638486,
      "perigee_km": 416.73862981696857,
      "latitude_deg": 6.29958100334151e-05,
      "longitude_deg": -4.131070668031268,
      "height_km": 420.9370483864902,
      "semi_major_axis_km": 6797.507012756677,
      "eccentricity": 0.00038711,
      "inclination_deg": 97.6511,
      "raan_deg": 258.8081,
      "arg_perigee_deg": 306.3329,
      "mean_anomaly_deg": 53.7564,
      "mean_motion_rev_day": 15.49095761
    },
    {
      "epoch": "2026-04-14T09:33:37.246464Z",
      "apogee_km": 421.8849356218634,
      "perigee_km": 416.69251805764543,
      "latitude_deg": -3.8944202086650255e-05,
      "longitude_deg": -85.87143092357181,
      "height_km": 421.0606684691693,
      "semi_major_axis_km": 6797.425726839754,
      "eccentricity": 0.00038194,
      "inclination_deg": 97.6509,
      "raan_deg": 260.1091,
      "arg_perigee_deg": 301.4445,
      "mean_anomaly_deg": 58.6431,
      "mean_motion_rev_day": 15.49123548
    },
    {
      "epoch": "2026-04-15T16:33:55.886688Z",
      "apogee_km": 421.77128044113124,
      "perigee_km": 416.6406459725031,
      "latitude_deg": -7.323273289630512e-05,
      "longitude_deg": 169.14687093862702,
      "height_km": 421.23799180062275,
      "semi_major_axis_km": 6797.342963206816,
      "eccentricity": 0.0003774,
      "inclination_deg": 97.651,
      "raan_deg": 261.4784,
      "arg_perigee_deg": 295.2563,
      "mean_anomaly_deg": 64.8295,
      "mean_motion_rev_day": 15.49151841
    },
    {
      "epoch": "2026-04-16T09:37:05.252736Z",
      "apogee_km": 421.7006549883954,
      "perigee_km": 416.6176369304467,
      "latitude_deg": -4.243613321171558e-05,
      "longitude_deg": -86.5893824632022,
      "height_km": 421.3369400960058,
      "semi_major_axis_km": 6797.296145959421,
      "eccentricity": 0.0003739,
      "inclination_deg": 97.6514,
      "raan_deg": 262.2315,
      "arg_perigee_deg": 291.9223,
      "mean_anomaly_deg": 68.1629,
      "mean_motion_rev_day": 15.49167846
    },
    {
      "epoch": "2026-04-17T21:16:22.857024Z",
      "apogee_km": 421.5690471659427,
      "perigee_km": 416.547279379316,
      "latitude_deg": 3.2585865603755964e-05,
      "longitude_deg": 98.69766416877788,
      "height_km": 421.54490466181346,
      "semi_major_axis_km": 6797.195163272629,
      "eccentricity": 0.0003694,
      "inclination_deg": 97.6518,
      "raan_deg": 263.8062,
      "arg_perigee_deg": 284.77,
      "mean_anomaly_deg": 75.3141,
      "mean_motion_rev_day": 15.49202369
    },
    {
      "epoch": "2026-04-18T20:31:32.606400Z",
      "apogee_km": 421.43615624033464,
      "perigee_km": 416.4987395693761,
      "latitude_deg": -1.7274829453655256e-05,
      "longitude_deg": 109.97889376343744,
      "height_km": 421.6657764503719,
      "semi_major_axis_km": 6797.104447904855,
      "eccentricity": 0.0003632,
      "inclination_deg": 97.6522,
      "raan_deg": 264.833,
      "arg_perigee_deg": 279.9985,
      "mean_anomaly_deg": 80.0855,
      "mean_motion_rev_day": 15.49233383
    },
    {
      "epoch": "2026-04-19T16:40:39.588960Z",
      "apogee_km": 421.34593632165615,
      "perigee_km": 416.4194564457166,
      "latitude_deg": 2.4885032157889117e-05,
      "longitude_deg": 167.76228250383798,
      "height_km": 421.7728222220599,
      "semi_major_axis_km": 6797.019696383686,
      "eccentricity": 0.0003624,
      "inclination_deg": 97.6525,
      "raan_deg": 265.7231,
      "arg_perigee_deg": 275.5195,
      "mean_anomaly_deg": 84.5642,
      "mean_motion_rev_day": 15.49262359
    },
    {
      "epoch": "2026-04-20T09:43:44.573664Z",
      "apogee_km": 421.29465588378025,
      "perigee_km": 416.3750076719398,
      "latitude_deg": -6.777914896936239e-05,
      "longitude_deg": -87.95535147923131,
      "height_km": 421.87848661501033,
      "semi_major_axis_km": 6796.97183177786,
      "eccentricity": 0.0003619,
      "inclination_deg": 97.6524,
      "raan_deg": 266.4765,
      "arg_perigee_deg": 271.9447,
      "mean_anomaly_deg": 88.1388,
      "mean_motion_rev_day": 15.49278724
    },
    {
      "epoch": "2026-04-21T16:43:51.358944Z",
      "apogee_km": 421.1510232200226,
      "perigee_km": 416.26273310284887,
      "latitude_deg": -2.870188147866157e-05,
      "longitude_deg": 167.1127659920836,
      "height_km": 422.01513493110104,
      "semi_major_axis_km": 6796.843878161436,
      "eccentricity": 0.0003596,
      "inclination_deg": 97.6528,
      "raan_deg": 267.8461,
      "arg_perigee_deg": 265.7518,
      "mean_anomaly_deg": 94.3321,
      "mean_motion_rev_day": 15.49322473
    },
    {
      "epoch": "2026-04-21T22:55:52.322016Z",
      "apogee_km": 421.13104379165907,
      "perigee_km": 416.22279258877643,
      "latitude_deg": -2.8685333940083604e-05,
      "longitude_deg": 74.1280165745349,
      "height_km": 422.03289038108886,
      "semi_major_axis_km": 6796.813918190217,
      "eccentricity": 0.00036107,
      "inclination_deg": 97.6529,
      "raan_deg": 268.12,
      "arg_perigee_deg": 264.6519,
      "mean_anomaly_deg": 95.4319,
      "mean_motion_rev_day": 15.49332717
    },
    {
      "epoch": "2026-04-22T22:10:55.039296Z",
      "apogee_km": 421.0394285130142,
      "perigee_km": 416.1539363420843,
      "latitude_deg": 4.5594242789677845e-05,
      "longitude_deg": 85.43910771718068,
      "height_km": 422.1423376734934,
      "semi_major_axis_km": 6796.733682427549,
      "eccentricity": 0.0003594,
      "inclination_deg": 97.6529,
      "raan_deg": 269.1473,
      "arg_perigee_deg": 260.1375,
      "mean_anomaly_deg": 99.947,
      "mean_motion_rev_day": 15.49360152
    },
    {
      "epoch": "2026-04-24T09:49:55.996032Z",
      "apogee_km": 420.9361551225784,
      "perigee_km": 415.9705662050783,
      "latitude_deg": -3.127041371637452e-06,
      "longitude_deg": -89.20337889283394,
      "height_km": 422.2860239728555,
      "semi_major_axis_km": 6796.5903606638285,
      "eccentricity": 0.0003653,
      "inclination_deg": 97.6527,
      "raan_deg": 270.7229,
      "arg_perigee_deg": 253.4962,
      "mean_anomaly_deg": 106.5887,
      "mean_motion_rev_day": 15.4940916
    },
    {
      "epoch": "2026-04-25T16:49:53.323968Z",
      "apogee_km": 420.82530034559477,
      "perigee_km": 415.79457032405935,
      "latitude_deg": -2.0585455322074827e-05,
      "longitude_deg": 165.90456218818954,
      "height_km": 422.37904296832335,
      "semi_major_axis_km": 6796.446935334827,
      "eccentricity": 0.0003701,
      "inclination_deg": 97.6525,
      "raan_deg": 272.0928,
      "arg_perigee_deg": 248.0141,
      "mean_anomaly_deg": 112.0716,
      "mean_motion_rev_day": 15.49458206
    },
    {
      "epoch": "2026-04-26T22:16:47.153856Z",
      "apogee_km": 420.6766702243722,
      "perigee_km": 415.62675585903344,
      "latitude_deg": 9.292264118936669e-05,
      "longitude_deg": 84.27235818543353,
      "height_km": 422.423719663639,
      "semi_major_axis_km": 6796.288713041702,
      "eccentricity": 0.00037152,
      "inclination_deg": 97.6523,
      "raan_deg": 273.3943,
      "arg_perigee_deg": 243.0433,
      "mean_anomaly_deg": 117.0439,
      "mean_motion_rev_day": 15.49512315
    },
    {
      "epoch": "2026-04-27T16:52:41.329632Z",
      "apogee_km": 420.6180729868356,
      "perigee_km": 415.4855911808463,
      "latitude_deg": -4.086926110080536e-05,
      "longitude_deg": 165.3546358644732,
      "height_km": 422.4679611370315,
      "semi_major_axis_km": 6796.188832083841,
      "eccentricity": 0.0003776,
      "inclination_deg": 97.6522,
      "raan_deg": 274.2161,
      "arg_perigee_deg": 239.8565,
      "mean_anomaly_deg": 120.2311,
      "mean_motion_rev_day": 15.49546474
    },
    {
      "epoch": "2026-04-28T16:07:32.147904Z",
      "apogee_km": 420.53399367359816,
      "perigee_km": 415.34315115138816,
      "latitude_deg": -1.7193420274079424e-06,
      "longitude_deg": 176.71564972713716,
      "height_km": 422.52756526667616,
      "semi_major_axis_km": 6796.075572412493,
      "eccentricity": 0.0003819,
      "inclination_deg": 97.6522,
      "raan_deg": 275.2436,
      "arg_perigee_deg": 235.7271,
      "mean_anomaly_deg": 124.3618,
      "mean_motion_rev_day": 15.4958521
    },
    {
      "epoch": "2026-04-29T09:10:24.165696Z",
      "apogee_km": 420.4694559083737,
      "perigee_km": 415.2566520269784,
      "latitude_deg": -7.283437366342057e-06,
      "longitude_deg": -78.9476175578788,
      "height_km": 422.5618577980395,
      "semi_major_axis_km": 6796.000053967676,
      "eccentricity": 0.00038352,
      "inclination_deg": 97.6522,
      "raan_deg": 275.9972,
      "arg_perigee_deg": 232.9214,
      "mean_anomaly_deg": 127.1686,
      "mean_motion_rev_day": 15.49611039
    }
  ]
}